1 20253U 89077A   26170.45257714 -.00000378  00000-0  00000-0 0  9993
2 20253  12.4210 351.1503 0004279  56.9215 148.2620  1.00276324260581
1 20776U 90079A   26162.20198485  .00000132  00000-0  00000+0 0  9996
2 20776  13.3424 349.8525 0002400  96.2313 279.5534  1.00274127130831
1 22787U 93056A   26170.71989071  .00000114  00000-0  00000+0 0  9992
2 22787  11.8960   3.5410 0005090   9.3291 182.8796  1.00269945118573
1 23467U 95003A   26170.78448566 -.00000033  00000-0  00000+0 0  9999
2 23467   9.6899  13.2203 0003092  71.2722 278.1042  1.00272601114976
1 23967U 96042A   26170.38506253 -.00000303  00000-0  00000-0 0  9993
2 23967  11.1186  17.0709 0006122 108.1199 235.8656  1.00213124109505
1 25544U 98067A   26170.83410214  .00008787  00000-0  16559-3 0  9998
2 25544  51.6327 286.9925 0004571 206.3214 153.7542 15.49322400572160
1 25967U 99063A   26170.38939589 -.00000199  00000-0  00000-0 0  9996
2 25967   9.8870  27.1862 0001866  46.5810 311.0888  1.00270478 97367
1 27168U 02001A   26168.80294760  .00000088  00000-0  00000-0 0  9992
2 27168  11.1806  21.9069 0099045   8.4150 183.8658  1.00277966 32962
1 27607U 02058C   26170.85258546  .00000740  00000-0  10489-3 0  9992
2 27607  64.5513 120.7383 0075162 261.9782  97.2791 14.83051819264858
1 28117U 03057A   26170.12375859 -.00000115  00000-0  00000-0 0  9998
2 28117   8.9400  33.8180 0002415  63.0815 290.6236  1.00271760 82462
1 28899U 05044A   26170.61656823 -.00000268  00000-0  00000+0 0  9998
2 28899   5.0990  43.7040 0002945  35.9125 193.6644  1.00270821 75549
1 30794U 07007B   26170.76923227 -.00000279  00000-0  00000+0 0  9999
2 30794   5.3067  73.7105 0003787  18.1377 188.2627  1.00274097 70721
1 32294U 07056B   26170.77336436  .00000133  00000-0  00000+0 0  9999
2 32294   5.2584  73.4750 0003909   9.6873 128.3893  1.00275981 68221
1 35943U 09054B   26170.76288067  .00000019  00000-0  00000+0 0  9991
2 35943   0.0529 160.0162 0002818 286.8623 158.7835  1.00269095 61334
1 36582U 10021B   26170.84211355  .00000083  00000-0  00000+0 0  9993
2 36582   0.0521  70.0500 0002730  34.4344 119.9427  1.00273885 58987
1 38098U 12011A   26170.80731206 -.00000064  00000-0  00000+0 0  9996
2 38098   0.0163  44.8823 0001531  48.3798 177.5022  1.00272456  7219
1 39034U 12075A   26170.76080066  .00000094  00000-0  00000+0 0  9995
2 39034   0.0658 356.7490 0003617  99.7745 138.1088  1.00271606 49186
1 39215U 13038A   26170.75534066  .00000127  00000-0  00000+0 0  9996
2 39215   2.9991   1.3905 0001763  88.6726 114.6892  1.00271969 44042
1 40296U 14069A   26170.17880909  .00000252  00000-0  00000-0 0  9998
2 40296  63.4447 215.1329 6647504 270.5561  19.7234  2.00594220 85274
1 40931U 15052B   25151.18580175  .00001241  00000-0  78118-4 0  9996
2 40931   6.0006  24.0987 0012733 338.8432  21.1169 14.78805930523159
1 43678U 18084H   26170.83737839  .00002089  00000-0  17098-3 0  9990
2 43678  98.1185   7.1604 0012724 161.6298 198.5387 15.00462775416615
1 43700U 18090A   26170.75551398  .00000138  00000-0  00000+0 0  9992
2 43700   0.0135  53.5670 0001779  70.9931  81.1783  1.00272144 27709
1 43803U 18099AX  26170.70553725  .00013869  00000-0  42740-3 0  9992
2 43803  97.4125 233.5484 0004492 250.8022 109.2735 15.33718827414017
1 44453U 19046A   26168.71665604 -.00000043  00000-0  00000+0 0  9995
2 44453  63.1350  50.7075 7075710 274.8679  14.6543  2.00598700 50351
1 44909U 19096E   26170.50699800  .00000010  00000-0 -97910-5 0  9997
2 44909  82.5220 338.1631 0218257 138.7616 223.0205 12.79748873302644
1 45254U 20015A   26168.46733541 -.00000081  00000-0  00000+0 0  9993
2 45254  65.5293 318.9476 6857285 277.8991  15.3211  2.00603792 46297
1 52145U 22030A   26170.46243851  .00000177  00000-0  00000+0 0  9997
2 52145  62.6773 140.5490 6784583 272.8540  17.6395  2.00613348 31071
1 57167U 23091B   26010.59363612  .08733485  25619-5  12458-2 0  9993
2 57167  97.4978  91.1570 0009532 282.8011  77.2220 16.34765267141469
1 59112U 24043Q   26170.38513632  .00035474  00000-0  45828-3 0  9991
2 59112  97.5537 320.9158 0007143 188.0523 172.0619 15.58855561128237
1 67291U 25313AV  26170.70536872  .00011199  00000-0  43324-3 0  9993
2 67291  97.3925 245.8896 0007987 353.2594   6.8536 15.26346044 26377
1 26635U 00080A   21013.46269075 0.00000000  00000-0  00000-0 0    09
2 26635   9.2857  29.8038 0014383 186.3086 173.6859  1.00273100    09
1 34810U 09020A   26118.58802400 0.00000000  00000-0  00000-0 0    05
2 34810   3.0809  80.0043 0003222 250.4250 109.5484  1.00270000    01
1 40614U 15022B   25359.93496764 0.00000000  00000-0  00000-0 0    00
2 40614   0.0160 108.2839 0003453 352.8976   7.0980  1.00270000    04
